CCSDS_OMM_VERS = 2.0
CREATION_DATE  = 
ORIGINATOR     = 

OBJECT_NAME    = ARIANE 40 R/B
OBJECT_ID      = 1990-005H
CENTER_NAME    = EARTH
REF_FRAME      = TEME
TIME_SYSTEM    = UTC
MEAN_ELEMENT_THEORY = SGP/SGP4

EPOCH          = 2025-12-03T03:34:28.789248
MEAN_MOTION    = 14.39786377
ECCENTRICITY   = .0011025
INCLINATION    = 98.3258
RA_OF_ASC_NODE = 35.5974
ARG_OF_PERICENTER = 131.9588
MEAN_ANOMALY   = 228.2541

EPHEMERIS_TYPE = 0
CLASSIFICATION_TYPE = U
NORAD_CAT_ID   = 20443
ELEMENT_SET_NO = 999
REV_AT_EPOCH   = 87891
BSTAR          = .15712524E-3
MEAN_MOTION_DOT = .451E-5
MEAN_MOTION_DDOT = 0

CCSDS_OMM_VERS = 2.0
CREATION_DATE  = 
ORIGINATOR     = 

OBJECT_NAME    = DELTA 2 R/B(1)
OBJECT_ID      = 1990-008B
CENTER_NAME    = EARTH
REF_FRAME      = TEME
TIME_SYSTEM    = UTC
MEAN_ELEMENT_THEORY = SGP/SGP4

EPOCH          = 2025-12-03T07:33:24.776640
MEAN_MOTION    = 15.44152302
ECCENTRICITY   = .0112536
INCLINATION    = 35.6064
RA_OF_ASC_NODE = 81.3467
ARG_OF_PERICENTER = 92.3388
MEAN_ANOMALY   = 269.0234

EPHEMERIS_TYPE = 0
CLASSIFICATION_TYPE = U
NORAD_CAT_ID   = 20453
ELEMENT_SET_NO = 999
REV_AT_EPOCH   = 91117
BSTAR          = .6832E-3
MEAN_MOTION_DOT = .41182E-3
MEAN_MOTION_DDOT = 0

CCSDS_OMM_VERS = 2.0
CREATION_DATE  = 
ORIGINATOR     = 

OBJECT_NAME    = COSMOS 2058
OBJECT_ID      = 1990-010A
CENTER_NAME    = EARTH
REF_FRAME      = TEME
TIME_SYSTEM    = UTC
MEAN_ELEMENT_THEORY = SGP/SGP4

EPOCH          = 2025-12-03T11:35:33.812736
MEAN_MOTION    = 15.10330631
ECCENTRICITY   = .0008548
INCLINATION    = 82.4629
RA_OF_ASC_NODE = 142.1363
ARG_OF_PERICENTER = 312.3150
MEAN_ANOMALY   = 47.7355

EPHEMERIS_TYPE = 0
CLASSIFICATION_TYPE = U
NORAD_CAT_ID   = 20465
ELEMENT_SET_NO = 999
REV_AT_EPOCH   = 92771
BSTAR          = .38753E-3
MEAN_MOTION_DOT = .6385E-4
MEAN_MOTION_DDOT = 0

CCSDS_OMM_VERS = 2.0
CREATION_DATE  = 
ORIGINATOR     = 

OBJECT_NAME    = SL-14 R/B
OBJECT_ID      = 1990-010B
CENTER_NAME    = EARTH
REF_FRAME      = TEME
TIME_SYSTEM    = UTC
MEAN_ELEMENT_THEORY = SGP/SGP4

EPOCH          = 2025-12-03T12:06:37.078848
MEAN_MOTION    = 14.83457427
ECCENTRICITY   = .0018319
INCLINATION    = 82.5023
RA_OF_ASC_NODE = 357.7211
ARG_OF_PERICENTER = 255.8139
MEAN_ANOMALY   = 104.1041

EPHEMERIS_TYPE = 0
CLASSIFICATION_TYPE = U
NORAD_CAT_ID   = 20466
ELEMENT_SET_NO = 999
REV_AT_EPOCH   = 91422
BSTAR          = .81425E-4
MEAN_MOTION_DOT = .694E-5
MEAN_MOTION_DDOT = 0

CCSDS_OMM_VERS = 2.0
CREATION_DATE  = 
ORIGINATOR     = 

OBJECT_NAME    = SL-14 R/B
OBJECT_ID      = 1990-018B
CENTER_NAME    = EARTH
REF_FRAME      = TEME
TIME_SYSTEM    = UTC
MEAN_ELEMENT_THEORY = SGP/SGP4

EPOCH          = 2025-12-03T10:19:09.447744
MEAN_MOTION    = 14.82030737
ECCENTRICITY   = .0017643
INCLINATION    = 82.5202
RA_OF_ASC_NODE = 313.0668
ARG_OF_PERICENTER = 52.3080
MEAN_ANOMALY   = 307.9730

EPHEMERIS_TYPE = 0
CLASSIFICATION_TYPE = U
NORAD_CAT_ID   = 20511
ELEMENT_SET_NO = 999
REV_AT_EPOCH   = 90832
BSTAR          = .93754E-4
MEAN_MOTION_DOT = .769E-5
MEAN_MOTION_DDOT = 0

CCSDS_OMM_VERS = 2.0
CREATION_DATE  = 
ORIGINATOR     = 

OBJECT_NAME    = HST
OBJECT_ID      = 1990-037B
CENTER_NAME    = EARTH
REF_FRAME      = TEME
TIME_SYSTEM    = UTC
MEAN_ELEMENT_THEORY = SGP/SGP4

EPOCH          = 2025-12-03T09:16:47.664192
MEAN_MOTION    = 15.27839490
ECCENTRICITY   = .0002082
INCLINATION    = 28.4702
RA_OF_ASC_NODE = 336.1401
ARG_OF_PERICENTER = 133.9439
MEAN_ANOMALY   = 226.1328

EPHEMERIS_TYPE = 0
CLASSIFICATION_TYPE = U
NORAD_CAT_ID   = 20580
ELEMENT_SET_NO = 999
REV_AT_EPOCH   = 75856
BSTAR          = .35826E-3
MEAN_MOTION_DOT = .10253E-3
MEAN_MOTION_DDOT = 0

CCSDS_OMM_VERS = 2.0
CREATION_DATE  = 
ORIGINATOR     = 

OBJECT_NAME    = SL-16 R/B
OBJECT_ID      = 1990-046B
CENTER_NAME    = EARTH
REF_FRAME      = TEME
TIME_SYSTEM    = UTC
MEAN_ELEMENT_THEORY = SGP/SGP4

EPOCH          = 2025-12-03T11:38:41.482176
MEAN_MOTION    = 14.14998234
ECCENTRICITY   = .0011944
INCLINATION    = 70.9981
RA_OF_ASC_NODE = 139.9568
ARG_OF_PERICENTER = 90.4941
MEAN_ANOMALY   = 269.7550

EPHEMERIS_TYPE = 0
CLASSIFICATION_TYPE = U
NORAD_CAT_ID   = 20625
ELEMENT_SET_NO = 999
REV_AT_EPOCH   = 83478
BSTAR          = .17888E-3
MEAN_MOTION_DOT = .299E-5
MEAN_MOTION_DDOT = 0

CCSDS_OMM_VERS = 2.0
CREATION_DATE  = 
ORIGINATOR     = 

OBJECT_NAME    = COSMOS 2084
OBJECT_ID      = 1990-055A
CENTER_NAME    = EARTH
REF_FRAME      = TEME
TIME_SYSTEM    = UTC
MEAN_ELEMENT_THEORY = SGP/SGP4

EPOCH          = 2025-12-03T07:58:27.193152
MEAN_MOTION    = 15.04920289
ECCENTRICITY   = .0033195
INCLINATION    = 62.7910
RA_OF_ASC_NODE = 304.0453
ARG_OF_PERICENTER = 173.5135
MEAN_ANOMALY   = 186.6401

EPHEMERIS_TYPE = 0
CLASSIFICATION_TYPE = U
NORAD_CAT_ID   = 20663
ELEMENT_SET_NO = 999
REV_AT_EPOCH   = 92181
BSTAR          = .32435E-3
MEAN_MOTION_DOT = .4468E-4
MEAN_MOTION_DDOT = 0

CCSDS_OMM_VERS = 2.0
CREATION_DATE  = 
ORIGINATOR     = 

OBJECT_NAME    = SL-6 R/B(2)
OBJECT_ID      = 1990-055D
CENTER_NAME    = EARTH
REF_FRAME      = TEME
TIME_SYSTEM    = UTC
MEAN_ELEMENT_THEORY = SGP/SGP4

EPOCH          = 2025-12-03T09:16:46.592832
MEAN_MOTION    = 15.03007645
ECCENTRICITY   = .0011888
INCLINATION    = 62.7832
RA_OF_ASC_NODE = 221.1942
ARG_OF_PERICENTER = 301.4306
MEAN_ANOMALY   = 58.5630

EPHEMERIS_TYPE = 0
CLASSIFICATION_TYPE = U
NORAD_CAT_ID   = 20666
ELEMENT_SET_NO = 999
REV_AT_EPOCH   = 92371
BSTAR          = .25624E-3
MEAN_MOTION_DOT = .3274E-4
MEAN_MOTION_DDOT = 0

CCSDS_OMM_VERS = 2.0
CREATION_DATE  = 
ORIGINATOR     = 

OBJECT_NAME    = SL-8 R/B
OBJECT_ID      = 1990-078B
CENTER_NAME    = EARTH
REF_FRAME      = TEME
TIME_SYSTEM    = UTC
MEAN_ELEMENT_THEORY = SGP/SGP4

EPOCH          = 2025-12-03T12:05:55.288032
MEAN_MOTION    = 14.85343652
ECCENTRICITY   = .0375038
INCLINATION    = 82.9044
RA_OF_ASC_NODE = 337.5748
ARG_OF_PERICENTER = 336.9537
MEAN_ANOMALY   = 21.5219

EPHEMERIS_TYPE = 0
CLASSIFICATION_TYPE = U
NORAD_CAT_ID   = 20775
ELEMENT_SET_NO = 999
REV_AT_EPOCH   = 79500
BSTAR          = .96466E-3
MEAN_MOTION_DOT = .31137E-3
MEAN_MOTION_DDOT = 0

CCSDS_OMM_VERS = 2.0
CREATION_DATE  = 
ORIGINATOR     = 

OBJECT_NAME    = SL-8 R/B
OBJECT_ID      = 1991-006B
CENTER_NAME    = EARTH
REF_FRAME      = TEME
TIME_SYSTEM    = UTC
MEAN_ELEMENT_THEORY = SGP/SGP4

EPOCH          = 2025-12-03T11:25:30.776160
MEAN_MOTION    = 13.77488398
ECCENTRICITY   = .0021521
INCLINATION    = 82.9430
RA_OF_ASC_NODE = 241.6028
ARG_OF_PERICENTER = 307.2552
MEAN_ANOMALY   = 226.6735

EPHEMERIS_TYPE = 0
CLASSIFICATION_TYPE = U
NORAD_CAT_ID   = 21088
ELEMENT_SET_NO = 999
REV_AT_EPOCH   = 75082
BSTAR          = .8011E-4
MEAN_MOTION_DOT = .95E-6
MEAN_MOTION_DDOT = 0

CCSDS_OMM_VERS = 2.0
CREATION_DATE  = 
ORIGINATOR     = 

OBJECT_NAME    = OKEAN-3
OBJECT_ID      = 1991-039A
CENTER_NAME    = EARTH
REF_FRAME      = TEME
TIME_SYSTEM    = UTC
MEAN_ELEMENT_THEORY = SGP/SGP4

EPOCH          = 2025-12-03T07:14:28.010976
MEAN_MOTION    = 15.04017401
ECCENTRICITY   = .001317
INCLINATION    = 82.5187
RA_OF_ASC_NODE = 70.1817
ARG_OF_PERICENTER = 300.0902
MEAN_ANOMALY   = 59.9018

EPHEMERIS_TYPE = 0
CLASSIFICATION_TYPE = U
NORAD_CAT_ID   = 21397
ELEMENT_SET_NO = 999
REV_AT_EPOCH   = 85054
BSTAR          = .33501E-3
MEAN_MOTION_DOT = .4664E-4
MEAN_MOTION_DDOT = 0

