ARIANE 40 R/B           
1 20443U 90005H   25337.14894432  .00000451  00000+0  15713-3 0  9991
2 20443  98.3258  35.5974 0011025 131.9588 228.2541 14.39786377878919
DELTA 2 R/B(1)          
1 20453U 90008B   25337.31487010  .00041182  00000+0  68320-3 0  9992
2 20453  35.6064  81.3467 0112536  92.3388 269.0234 15.44152302911172
COSMOS 2058             
1 20465U 90010A   25337.48303024  .00006385  00000+0  38753-3 0  9991
2 20465  82.4629 142.1363 0008548 312.3150  47.7355 15.10330631927710
SL-14 R/B               
1 20466U 90010B   25337.50459582  .00000694  00000+0  81425-4 0  9998
2 20466  82.5023 357.7211 0018319 255.8139 104.1041 14.83457427914225
SL-14 R/B               
1 20511U 90018B   25337.42997046  .00000769  00000+0  93754-4 0  9991
2 20511  82.5202 313.0668 0017643  52.3080 307.9730 14.82030737908322
HST                     
1 20580U 90037B   25337.38666278  .00010253  00000+0  35826-3 0  9997
2 20580  28.4702 336.1401 0002082 133.9439 226.1328 15.27839490758565
SL-16 R/B               
1 20625U 90046B   25337.48520234  .00000299  00000+0  17888-3 0  9996
2 20625  70.9981 139.9568 0011944  90.4941 269.7550 14.14998234834787
COSMOS 2084             
1 20663U 90055A   25337.33225918  .00004468  00000+0  32435-3 0  9990
2 20663  62.7910 304.0453 0033195 173.5135 186.6401 15.04920289921816
SL-6 R/B(2)             
1 20666U 90055D   25337.38665038  .00003274  00000+0  25624-3 0  9995
2 20666  62.7832 221.1942 0011888 301.4306  58.5630 15.03007645923714
SL-8 R/B                
1 20775U 90078B   25337.50411213  .00031137  00000+0  96466-3 0  9990
2 20775  82.9044 337.5748 0375038 336.9537  21.5219 14.85343652795001
SL-8 R/B                
1 21088U 91006B   25337.47605065  .00000095  00000+0  80110-4 0  9995
2 21088  82.9430 241.6028 0021521 307.2552 226.6735 13.77488398750826
OKEAN-3                 
1 21397U 91039A   25337.30171309  .00004664  00000+0  33501-3 0  9992
2 21397  82.5187  70.1817 0013170 300.0902  59.9018 15.04017401850542
